EUTELSAT 7A             
1 28187U 04008A   25357.73354844  .00000121  00000+0  00000+0 0  9990
2 28187   5.3840  74.1266 0000957 209.4746 293.7763  1.00271405 79594
EUTELSAT 174A           
1 28924U 05052A   25357.86701770  .00000028  00000+0  00000+0 0  9993
2 28924   3.7737  78.7239 0005930 196.2965 303.7486  1.00270126 50572
EUTELSAT HOTBIRD 13B    
1 29270U 06032A   25357.98176507  .00000176  00000+0  00000+0 0  9998
2 29270   1.2080  84.2794 0003579 185.1079 209.9413  1.00275227 45555
EUTELSAT HOTBIRD 13C    
1 33459U 08065A   25357.82255741 -.00000263  00000+0  00000+0 0  9999
2 33459   2.4983  81.3016 0003512 186.4619  70.6481  1.00270002 45587
EUTELSAT 36B            
1 36101U 09065A   25357.98514509  .00000133  00000+0  00000+0 0  9999
2 36101   0.0559  43.0416 0005727 229.0756 225.7781  1.00271488 58952
EUTELSAT KA-SAT 9A      
1 37258U 10069A   25358.01989183  .00000082  00000+0  00000+0 0  9991
2 37258   0.0502 337.2462 0001394 203.1800 288.5309  1.00266597 42256
EUTELSAT 7 WEST A       
1 37816U 11051A   25358.03100168 -.00000039  00000+0  00000+0 0  9996
2 37816   0.0626 348.3878 0005189 241.6989 226.5836  1.00271256 52120
EUTELSAT 16A            
1 37836U 11057A   25358.01850145  .00000125  00000+0  00000+0 0  9994
2 37836   0.0568 346.2607 0005848 288.4668 200.7187  1.00270725  5579
